{"type": "FeatureCollection", "features": [ {"type": "Feature", "properties": {"norad_id": 28649, "name": "IRS-P5 (CARTOSAT-1)", "group": "resource", "lat": -70.96012829778006, "lon": 48.64055552793171, "alt_km": 604.0947715102002, "timestamp": "2025-12-26T05:31:12.156353+00:00", "meta": {"OBJECT_NAME": "IRS-P5 (CARTOSAT-1)", "OBJECT_ID": "2005-017A", "EPOCH": "2025-12-25T23:23:59.136000", "MEAN_MOTION": 14.90447321, "ECCENTRICITY": 4.731e-05, "INCLINATION": 97.5483, "RA_OF_ASC_NODE": 25.8009, "ARG_OF_PERICENTER": 68.407, "MEAN_ANOMALY": 291.7199, "EPHEMERIS_TYPE": 0, "CLASSIFICATION_TYPE": "U", "NORAD_CAT_ID": 28649, "ELEMENT_SET_NO": 999, "REV_AT_EPOCH": 11801, "BSTAR": 0.00016502967, "MEAN_MOTION_DOT": 1.557e-05, "MEAN_MOTION_DDOT": 0}, "tle": {"line1": "1 28649U 05017A   25359.97499000  .00001557  00000+0  16503-3 0  9999", "line2": "2 28649  97.5483  25.8009 0000473  68.4070 291.7199 14.90447321118014"}}, "geometry": {"type": "Point", "coordinates": [48.64055552793171, -70.96012829778006]}}, {"type": "Feature", "properties": {"norad_id": 28893, "name": "SINAH 1", "group": "resource", "lat": 75.94890914899281, "lon": 93.33799852576644, "alt_km": 662.660289493796, "timestamp": "2025-12-26T05:31:12.156364+00:00", "meta": {"OBJECT_NAME": "SINAH 1", "OBJECT_ID": "2005-043D", "EPOCH": "2025-12-25T22:36:05.479776", "MEAN_MOTION": 14.63975984, "ECCENTRICITY": 0.00157332, "INCLINATION": 98.261, "RA_OF_ASC_NODE": 128.5349, "ARG_OF_PERICENTER": 98.5336, "MEAN_ANOMALY": 261.765, "EPHEMERIS_TYPE": 0, "CLASSIFICATION_TYPE": "U", "NORAD_CAT_ID": 28893, "ELEMENT_SET_NO": 999, "REV_AT_EPOCH": 7517, "BSTAR": 9.6905896e-05, "MEAN_MOTION_DOT": 4.59e-06, "MEAN_MOTION_DDOT": 0}, "tle": {"line1": "1 28893U 05043D   25359.94173009  .00000459  00000+0  96906-4 0  9990", "line2": "2 28893  98.2610 128.5349 0015733  98.5336 261.7650 14.63975984 75176"}}, "geometry": {"type": "Point", "coordinates": [93.33799852576644, 75.94890914899281]}}, {"type": "Feature", "properties": {"norad_id": 29079, "name": "EROS B", "group": "resource", "lat": -28.638810488429726, "lon": -66.55081988796788, "alt_km": 357.6099392000542, "timestamp": "2025-12-26T05:31:12.156375+00:00", "meta": {"OBJECT_NAME": "EROS B", "OBJECT_ID": "2006-014A", "EPOCH": "2025-12-25T22:31:35.174784", "MEAN_MOTION": 15.72667014, "ECCENTRICITY": 0.0004585, "INCLINATION": 97.345, "RA_OF_ASC_NODE": 117.1815, "ARG_OF_PERICENTER": 312.3914, "MEAN_ANOMALY": 47.6961, "EPHEMERIS_TYPE": 0, "CLASSIFICATION_TYPE": "U", "NORAD_CAT_ID": 29079, "ELEMENT_SET_NO": 999, "REV_AT_EPOCH": 9287, "BSTAR": 0.0014392033, "MEAN_MOTION_DOT": 0.00197211, "MEAN_MOTION_DDOT": 0}, "tle": {"line1": "1 29079U 06014A   25359.93860156  .00197211  00000+0  14392-2 0  9991", "line2": "2 29079  97.3450 117.1815 0004585 312.3914  47.6961 15.72667014 92874"}}, "geometry": {"type": "Point", "coordinates": [-66.55081988796788, -28.638810488429726]}}, {"type": "Feature", "properties": {"norad_id": 29228, "name": "RESURS-DK 1", "group": "resource", "lat": -23.9862122571574, "lon": -103.66571432789618, "alt_km": 530.7075942220381, "timestamp": "2025-12-26T05:31:12.156386+00:00", "meta": {"OBJECT_NAME": "RESURS-DK 1", "OBJECT_ID": "2006-021A", "EPOCH": "2025-12-25T12:44:18.731040", "MEAN_MOTION": 15.12230969, "ECCENTRICITY": 0.0006922, "INCLINATION": 69.9336, "RA_OF_ASC_NODE": 68.7803, "ARG_OF_PERICENTER": 247.3291, "MEAN_ANOMALY": 112.7143, "EPHEMERIS_TYPE": 0, "CLASSIFICATION_TYPE": "U", "NORAD_CAT_ID": 29228, "ELEMENT_SET_NO": 999, "REV_AT_EPOCH": 7631, "BSTAR": 0.00018237, "MEAN_MOTION_DOT": 3.053e-05, "MEAN_MOTION_DDOT": 0}, "tle": {"line1": "1 29228U 06021A   25359.53077235  .00003053  00000+0  18237-3 0  9992", "line2": "2 29228  69.9336  68.7803 0006922 247.3291 112.7143 15.12230969 76314"}}, "geometry": {"type": "Point", "coordinates": [-103.66571432789618, -23.9862122571574]}}, {"type": "Feature", "properties": {"norad_id": 29268, "name": "ARIRANG-2 (KOMPSAT-2)", "group": "resource", "lat": 9.30314236850626, "lon": -173.24565195395226, "alt_km": 683.0402402147429, "timestamp": "2025-12-26T05:31:12.156397+00:00", "meta": {"OBJECT_NAME": "ARIRANG-2 (KOMPSAT-2)", "OBJECT_ID": "2006-031A", "EPOCH": "2025-12-25T23:37:33.209760", "MEAN_MOTION": 14.64505658, "ECCENTRICITY": 0.00131221, "INCLINATION": 97.8258, "RA_OF_ASC_NODE": 187.8118, "ARG_OF_PERICENTER": 263.482, "MEAN_ANOMALY": 251.8583, "EPHEMERIS_TYPE": 0, "CLASSIFICATION_TYPE": "U", "NORAD_CAT_ID": 29268, "ELEMENT_SET_NO": 999, "REV_AT_EPOCH": 3612, "BSTAR": 0.0001109252, "MEAN_MOTION_DOT": 5.43e-06, "MEAN_MOTION_DDOT": 0}, "tle": {"line1": "1 29268U 06031A   25359.98441215  .00000543  00000+0  11093-3 0  9993", "line2": "2 29268  97.8258 187.8118 0013122 263.4820 251.8583 14.64505658 36124"}}, "geometry": {"type": "Point", "coordinates": [-173.24565195395226, 9.30314236850626]}}, {"type": "Feature", "properties": {"norad_id": 29709, "name": "LAPAN-TUBSAT", "group": "resource", "lat": -69.79124413665224, "lon": 147.8224502136201, "alt_km": 625.9593175793061, "timestamp": "2025-12-26T05:31:12.156408+00:00", "meta": {"OBJECT_NAME": "LAPAN-TUBSAT", "OBJECT_ID": "2007-001A", "EPOCH": "2025-12-25T23:32:33.399168", "MEAN_MOTION": 14.85687949, "ECCENTRICITY": 0.0013115, "INCLINATION": 98.1266, "RA_OF_ASC_NODE": 350.4098, "ARG_OF_PERICENTER": 34.5659, "MEAN_ANOMALY": 325.6406, "EPHEMERIS_TYPE": 0, "CLASSIFICATION_TYPE": "U", "NORAD_CAT_ID": 29709, "ELEMENT_SET_NO": 999, "REV_AT_EPOCH": 2543, "BSTAR": 3.0701593e-05, "MEAN_MOTION_DOT": 2.09e-06, "MEAN_MOTION_DDOT": 0}, "tle": {"line1": "1 29709U 07001A   25359.98094212  .00000209  00000+0  30702-4 0  9990", "line2": "2 29709  98.1266 350.4098 0013115  34.5659 325.6406 14.85687949 25434"}}, "geometry": {"type": "Point", "coordinates": [147.8224502136201, -69.79124413665224]}}, {"type": "Feature", "properties": {"norad_id": 31113, "name": "HAIYANG-1B", "group": "resource", "lat": 3.313345704710313, "lon": -16.534480754398086, "alt_km": 781.3059106276969, "timestamp": "2025-12-26T05:31:12.156418+00:00", "meta": {"OBJECT_NAME": "HAIYANG-1B", "OBJECT_ID": "2007-010A", "EPOCH": "2025-12-25T22:47:30.795936", "MEAN_MOTION": 14.30969243, "ECCENTRICITY": 0.00135505, "INCLINATION": 98.3331, "RA_OF_ASC_NODE": 343.6829, "ARG_OF_PERICENTER": 359.9847, "MEAN_ANOMALY": 0.1334, "EPHEMERIS_TYPE": 0, "CLASSIFICATION_TYPE": "U", "NORAD_CAT_ID": 31113, "ELEMENT_SET_NO": 999, "REV_AT_EPOCH": 97585, "BSTAR": 6.0325307e-05, "MEAN_MOTION_DOT": 1.17e-06, "MEAN_MOTION_DDOT": 0}, "tle": {"line1": "1 31113U 07010A   25359.94966199  .00000117  00000+0  60325-4 0  9992", "line2": "2 31113  98.3331 343.6829 0013550 359.9847   0.1334 14.30969243975858"}}, "geometry": {"type": "Point", "coordinates": [-16.534480754398086, 3.313345704710313]}}, {"type": "Feature", "properties": {"norad_id": 31598, "name": "COSMO-SKYMED 1", "group": "resource", "lat": -21.14648576746834, "lon": -171.20917954947356, "alt_km": 585.1350150592225, "timestamp": "2025-12-26T05:31:12.156429+00:00", "meta": {"OBJECT_NAME": "COSMO-SKYMED 1", "OBJECT_ID": "2007-023A", "EPOCH": "2025-12-25T23:11:37.091328", "MEAN_MOTION": 14.95861375, "ECCENTRICITY": 0.00011837, "INCLINATION": 97.8839, "RA_OF_ASC_NODE": 185.4531, "ARG_OF_PERICENTER": 77.1821, "MEAN_ANOMALY": 282.9532, "EPHEMERIS_TYPE": 0, "CLASSIFICATION_TYPE": "U", "NORAD_CAT_ID": 31598, "ELEMENT_SET_NO": 999, "REV_AT_EPOCH": 388, "BSTAR": 0.00028394322, "MEAN_MOTION_DOT": 3.114e-05, "MEAN_MOTION_DDOT": 0}, "tle": {"line1": "1 31598U 07023A   25359.96640152  .00003114  00000+0  28394-3 0  9992", "line2": "2 31598  97.8839 185.4531 0001183  77.1821 282.9532 14.95861375  3887"}}, "geometry": {"type": "Point", "coordinates": [-171.20917954947356, -21.14648576746834]}}, {"type": "Feature", "properties": {"norad_id": 31698, "name": "TERRASAR-X", "group": "resource", "lat": 45.220349329710224, "lon": -2.1586505187007075, "alt_km": 503.47082411919564, "timestamp": "2025-12-26T05:31:12.156439+00:00", "meta": {"OBJECT_NAME": "TERRASAR-X", "OBJECT_ID": "2007-026A", "EPOCH": "2025-12-25T13:30:40.378176", "MEAN_MOTION": 15.19155603, "ECCENTRICITY": 0.0001851, "INCLINATION": 97.4447, "RA_OF_ASC_NODE": 4.756, "ARG_OF_PERICENTER": 79.9289, "MEAN_ANOMALY": 280.2154, "EPHEMERIS_TYPE": 0, "CLASSIFICATION_TYPE": "U", "NORAD_CAT_ID": 31698, "ELEMENT_SET_NO": 999, "REV_AT_EPOCH": 2686, "BSTAR": 7.0738e-05, "MEAN_MOTION_DOT": 1.419e-05, "MEAN_MOTION_DDOT": 0}, "tle": {"line1": "1 31698U 07026A   25359.56296734  .00001419  00000+0  70738-4 0  9991", "line2": "2 31698  97.4447   4.7560 0001851  79.9289 280.2154 15.19155603 26865"}}, "geometry": {"type": "Point", "coordinates": [-2.1586505187007075, 45.220349329710224]}}, {"type": "Feature", "properties": {"norad_id": 32060, "name": "WORLDVIEW-1 (WV-1)", "group": "resource", "lat": -60.14587135245915, "lon": 130.56748558878581, "alt_km": 499.73414348035567, "timestamp": "2025-12-26T05:31:12.156450+00:00", "meta": {"OBJECT_NAME": "WORLDVIEW-1 (WV-1)", "OBJECT_ID": "2007-041A", "EPOCH": "2025-12-25T21:54:28.539648", "MEAN_MOTION": 15.23970328, "ECCENTRICITY": 0.00030904, "INCLINATION": 97.3821, "RA_OF_ASC_NODE": 117.2002, "ARG_OF_PERICENTER": 352.1251, "MEAN_ANOMALY": 7.9937, "EPHEMERIS_TYPE": 0, "CLASSIFICATION_TYPE": "U", "NORAD_CAT_ID": 32060, "ELEMENT_SET_NO": 999, "REV_AT_EPOCH": 1648, "BSTAR": 0.00033312334, "MEAN_MOTION_DOT": 7.994e-05, "MEAN_MOTION_DDOT": 0}, "tle": {"line1": "1 32060U 07041A   25359.91283032  .00007994  00000+0  33312-3 0  9998", "line2": "2 32060  97.3821 117.2002 0003090 352.1251   7.9937 15.23970328 16481"}}, "geometry": {"type": "Point", "coordinates": [130.56748558878581, -60.14587135245915]}}]}